{"type": "FeatureCollection", "features": [{"type": "Feature", "geometry": {"type": "Point", "coordinates": [-0.0617304, 51.4920975]}, "properties": {"amenity": "taxi", "osm_type": "node", "osm_id": 288031613, "_matched": false}}, {"type": "Feature", "geometry": {"type": "Point", "coordinates": [-0.0736255, 51.5655211]}, "properties": {"amenity": "taxi", "name": "Hawknad Private Hire", "osm_type": "node", "osm_id": 369859340, "_matched": false}}, {"type": "Feature", "geometry": {"type": "Point", "coordinates": [-0.0728152, 51.5653732]}, "properties": {"addr:city": "London", "addr:housenumber": "3", "addr:street": "Station Approach", "amenity": "taxi", "name": "Ron's Car Service", "osm_type": "node", "osm_id": 374237962, "_matched": false}}, {"type": "Feature", "geometry": {"type": "Point", "coordinates": [-0.1265502, 51.4907196]}, "properties": {"amenity": "taxi", "check_date": "2024-04-03", "osm_type": "node", "osm_id": 409898269, "_matched": true}}, {"type": "Feature", "geometry": {"type": "Point", "coordinates": [0.0156802, 51.4063637]}, "properties": {"addr:housenumber": "6", "addr:street": "East Street", "amenity": "taxi", "contact:phone": "+44 20 8290 0123", "name": "ACX Express", "osm_type": "node", "osm_id": 420777385, "_matched": false}}, {"type": "Feature", "geometry": {"type": "Point", "coordinates": [-0.0867188, 51.5050556]}, "properties": {"amenity": "taxi", "check_date": "2023-03-03", "layer": "1", "osm_type": "node", "osm_id": 446861344, "_matched": true}}, {"type": "Feature", "geometry": {"type": "Point", "coordinates": [-0.2240934, 51.4930218]}, "properties": {"amenity": "taxi", "osm_type": "node", "osm_id": 452767898, "_matched": true}}, {"type": "Feature", "geometry": {"type": "Point", "coordinates": [-0.1555858, 51.5358391]}, "properties": {"amenity": "taxi", "check_date": "2026-04-16", "osm_type": "node", "osm_id": 473141783, "_matched": false}}, {"type": "Feature", "geometry": {"type": "Point", "coordinates": [-0.2358033, 51.4928927]}, "properties": {"amenity": "taxi", "name": "Abbey Cars", "osm_type": "node", "osm_id": 500103433, "_matched": false}}, {"type": "Feature", "geometry": {"type": "Point", "coordinates": [-0.1771849, 51.5177427]}, "properties": {"amenity": "taxi", "check_date": "2026-09-02", "osm_type": "node", "osm_id": 511523785, "_matched": false}}, {"type": "Feature", "geometry": {"type": "Point", "coordinates": [-0.098312, 51.494609]}, "properties": {"amenity": "taxi", "name": "Elephant Car Service", "osm_type": "node", "osm_id": 544504113, "_matched": false}}, {"type": "Feature", "geometry": {"type": "Point", "coordinates": [-0.1649951, 51.5171135]}, "properties": {"amenity": "taxi", "capacity": "2", "osm_type": "node", "osm_id": 649910610, "_matched": true}}, {"type": "Feature", "geometry": {"type": "Point", "coordinates": [-0.0745067, 51.5585442]}, "properties": {"amenity": "taxi", "name": "G S Minicabs", "osm_type": "node", "osm_id": 660897067, "_matched": false}}, {"type": "Feature", "geometry": {"type": "Point", "coordinates": [-0.0744741, 51.5586743]}, "properties": {"amenity": "taxi", "osm_type": "node", "osm_id": 660897071, "_matched": false}}, {"type": "Feature", "geometry": {"type": "Point", "coordinates": [-0.2682743, 51.4814008]}, "properties": {"amenity": "taxi", "name": "Grove Park Cars", "osm_type": "node", "osm_id": 747951971, "_matched": false}}, {"type": "Feature", "geometry": {"type": "Point", "coordinates": [-0.2554005, 51.4951089]}, "properties": {"amenity": "taxi", "check_date": "2024-03-24", "osm_type": "node", "osm_id": 762668677, "_matched": true}}, {"type": "Feature", "geometry": {"type": "Point", "coordinates": [-0.1913059, 51.3595489]}, "properties": {"addr:street": "High Street", "amenity": "taxi", "name": "Sutton Train Station Taxi Rank", "osm_type": "node", "osm_id": 784382808, "_matched": true}}, {"type": "Feature", "geometry": {"type": "Point", "coordinates": [-0.1642826, 51.5870827]}, "properties": {"amenity": "taxi", "name": "East Finchley Station", "osm_type": "node", "osm_id": 802187433, "_matched": false}}, {"type": "Feature", "geometry": {"type": "Point", "coordinates": [-0.1835415, 51.523174]}, "properties": {"amenity": "taxi", "capacity": "8", "osm_type": "node", "osm_id": 884121914, "_matched": true}}, {"type": "Feature", "geometry": {"type": "Point", "coordinates": [-0.3068124, 51.5012045]}, "properties": {"amenity": "taxi", "osm_type": "node", "osm_id": 1096305319, "_matched": true}}, {"type": "Feature", "geometry": {"type": "Point", "coordinates": [0.0703165, 51.5598066]}, "properties": {"amenity": "taxi", "osm_type": "node", "osm_id": 1096866948, "_matched": true}}, {"type": "Feature", "geometry": {"type": "Point", "coordinates": [0.2504256, 51.5589785]}, "properties": {"amenity": "taxi", "osm_type": "node", "osm_id": 1344536697, "_matched": true}}, {"type": "Feature", "geometry": {"type": "Point", "coordinates": [-0.0133342, 51.4779546]}, "properties": {"amenity": "taxi", "source": "Local Knowledge", "osm_type": "node", "osm_id": 1360224469, "_matched": true}}, {"type": "Feature", "geometry": {"type": "Point", "coordinates": [-0.1452942, 51.4939908]}, "properties": {"amenity": "taxi", "osm_type": "node", "osm_id": 1394714398, "_matched": false}}, {"type": "Feature", "geometry": {"type": "Point", "coordinates": [-0.0091115, 51.5443775]}, "properties": {"amenity": "taxi", "capacity": "11", "osm_type": "node", "osm_id": 1440884547, "_matched": true}}, {"type": "Feature", "geometry": {"type": "Point", "coordinates": [-0.1252478, 51.5082301]}, "properties": {"amenity": "taxi", "osm_type": "node", "osm_id": 1497135191, "_matched": false}}, {"type": "Feature", "geometry": {"type": "Point", "coordinates": [0.0033186, 51.5006021]}, "properties": {"amenity": "taxi", "covered": "yes", "level": "0", "osm_type": "node", "osm_id": 1511356772, "_matched": true}}, {"type": "Feature", "geometry": {"type": "Point", "coordinates": [-0.1452201, 51.5159227]}, "properties": {"amenity": "taxi", "check_date": "2024-05-10", "source": "survey", "osm_type": "node", "osm_id": 1611125270, "_matched": true}}, {"type": "Feature", "geometry": {"type": "Point", "coordinates": [-0.1978664, 51.4803061]}, "properties": {"addr:city": "London", "addr:housenumber": "603", "addr:postcode": "SW6 5UA", "addr:street": "Fulham Road", "amenity": "taxi", "name": "Hayber Cars", "note": "Within the Safari Centre", "operator": "Hayber Cars", "osm_type": "node", "osm_id": 1639959452, "_matched": false}}, {"type": "Feature", "geometry": {"type": "Point", "coordinates": [-0.1117031, 51.5032824]}, "properties": {"amenity": "taxi", "osm_type": "node", "osm_id": 1646855371, "_matched": true}}, {"type": "Feature", "geometry": {"type": "Point", "coordinates": [-0.0797257, 51.5272881]}, "properties": {"amenity": "taxi", "colour": "#8480D7", "source": "photograph", "osm_type": "node", "osm_id": 1764427014, "_matched": true}}, {"type": "Feature", "geometry": {"type": "Point", "coordinates": [-0.1340323, 51.6161388]}, "properties": {"amenity": "taxi", "osm_type": "node", "osm_id": 1778363609, "_matched": true}}, {"type": "Feature", "geometry": {"type": "Point", "coordinates": [-0.0206044, 51.5034655]}, "properties": {"amenity": "taxi", "osm_type": "node", "osm_id": 1812190542, "_matched": true}}, {"type": "Feature", "geometry": {"type": "Point", "coordinates": [-0.0350711, 51.5259313]}, "properties": {"addr:city": "London", "addr:housenumber": "12b", "addr:postcode": "E3 5AX", "addr:street": "Grove Road", "amenity": "taxi", "name": "Grove Cars", "note": "Minicab office", "source": "survey", "osm_type": "node", "osm_id": 2055131639, "_matched": false}}, {"type": "Feature", "geometry": {"type": "Point", "coordinates": [-0.3043565, 51.3928845]}, "properties": {"amenity": "taxi", "osm_type": "node", "osm_id": 2075910646, "_matched": true}}, {"type": "Feature", "geometry": {"type": "Point", "coordinates": [-0.3192791, 51.5144748]}, "properties": {"addr:housenumber": "8", "addr:street": "The Avenue", "amenity": "taxi", "check_date": "2026-06-09", "name": "Manor Cars", "taxi": "office", "osm_type": "node", "osm_id": 2264971275, "_matched": false}}, {"type": "Feature", "geometry": {"type": "Point", "coordinates": [-0.3062319, 51.411054]}, "properties": {"amenity": "taxi", "check_date": "2025-05-25", "osm_type": "node", "osm_id": 2503123245, "_matched": true}}, {"type": "Feature", "geometry": {"type": "Point", "coordinates": [-0.0041799, 51.5427152]}, "properties": {"amenity": "taxi", "capacity": "6", "osm_type": "node", "osm_id": 2505242165, "_matched": true}}, {"type": "Feature", "geometry": {"type": "Point", "coordinates": [-0.3346731, 51.5926344]}, "properties": {"amenity": "taxi", "capacity": "3", "osm_type": "node", "osm_id": 2507793943, "_matched": true}}, {"type": "Feature", "geometry": {"type": "Point", "coordinates": [-0.1250887, 51.4487548]}, "properties": {"amenity": "taxi", "name": "7000 Cars Mini Cab & Courier Service", "osm_type": "node", "osm_id": 2510262573, "_matched": false}}, {"type": "Feature", "geometry": {"type": "Point", "coordinates": [-0.1251009, 51.5313983]}, "properties": {"amenity": "taxi", "check_date": "2023-06-07", "source": "survey", "osm_type": "node", "osm_id": 2713360318, "_matched": false}}, {"type": "Feature", "geometry": {"type": "Point", "coordinates": [-0.0366482, 51.4547638]}, "properties": {"amenity": "taxi", "name": "Crofton Park Cars", "osm_type": "node", "osm_id": 2715466615, "_matched": false}}, {"type": "Feature", "geometry": {"type": "Point", "coordinates": [-0.1325137, 51.5102663]}, "properties": {"amenity": "taxi", "source": "photograph", "osm_type": "node", "osm_id": 2931935305, "_matched": true}}, {"type": "Feature", "geometry": {"type": "Point", "coordinates": [-0.0677043, 51.4738711]}, "properties": {"amenity": "taxi", "contact:phone": "+44 20 7277 7244", "name": "Exxtra Cars", "taxi": "office", "osm_type": "node", "osm_id": 2950089185, "_matched": false}}, {"type": "Feature", "geometry": {"type": "Point", "coordinates": [0.0677777, 51.4905503]}, "properties": {"addr:city": "London", "addr:housenumber": "11", "addr:postcode": "SE18 6HX", "addr:street": "Greens End", "amenity": "taxi", "name": "Supercars Minicabs", "operator": "Supercars", "osm_type": "node", "osm_id": 2987503323, "_matched": false}}, {"type": "Feature", "geometry": {"type": "Point", "coordinates": [-0.1750812, 51.5125527]}, "properties": {"amenity": "taxi", "check_date": "2026-08-17", "osm_type": "node", "osm_id": 3100196383, "_matched": true}}, {"type": "Feature", "geometry": {"type": "Point", "coordinates": [0.09994, 51.4642722]}, "properties": {"addr:housenumber": "5", "addr:postcode": "DA16 3AX", "addr:street": "Central Avenue", "amenity": "taxi", "name": "24Hr Central Car Hire Ltd", "osm_type": "node", "osm_id": 3135078040, "_matched": false}}, {"type": "Feature", "geometry": {"type": "Point", "coordinates": [-0.0194671, 51.5246595]}, "properties": {"addr:city": "London", "addr:housenumber": "81", "addr:street": "Campbell Road", "amenity": "taxi", "name": "Bow Taxis", "osm_type": "node", "osm_id": 3194380037, "_matched": false}}, {"type": "Feature", "geometry": {"type": "Point", "coordinates": [0.0815135, 51.539537]}, "properties": {"amenity": "taxi", "name": "Barking Station", "shelter": "yes", "osm_type": "node", "osm_id": 3208333672, "_matched": false}}, {"type": "Feature", "geometry": {"type": "Point", "coordinates": [-0.0604092, 51.5886976]}, "properties": {"amenity": "taxi", "shelter": "yes", "osm_type": "node", "osm_id": 3409473617, "_matched": true}}, {"type": "Feature", "geometry": {"type": "Point", "coordinates": [-0.1702412, 51.4672223]}, "properties": {"addr:city": "London", "addr:housenumber": "85", "addr:street": "Falcon Road", "amenity": "taxi", "name": "The Keen Group", "shop": "taxi", "osm_type": "node", "osm_id": 3427702427, "_matched": false}}, {"type": "Feature", "geometry": {"type": "Point", "coordinates": [-0.1493059, 51.5105524]}, "properties": {"amenity": "taxi", "osm_type": "node", "osm_id": 3494883346, "_matched": true}}, {"type": "Feature", "geometry": {"type": "Point", "coordinates": [-0.2070513, 51.4212785]}, "properties": {"amenity": "taxi", "check_date": "2024-03-01", "shelter": "yes", "osm_type": "node", "osm_id": 3682419611, "_matched": false}}, {"type": "Feature", "geometry": {"type": "Point", "coordinates": [-0.2384988, 51.5000609]}, "properties": {"addr:city": "London", "addr:housenumber": "254", "addr:street": "Goldhawk Road", "amenity": "taxi", "name": "Umber Cars", "osm_type": "node", "osm_id": 3772007658, "_matched": false}}, {"type": "Feature", "geometry": {"type": "Point", "coordinates": [-0.233158, 51.5063198]}, "properties": {"addr:city": "London", "addr:housenumber": "111", "addr:postcode": "W12 8NL", "addr:street": "Uxbridge Road", "amenity": "taxi", "name": "Astoria Express", "osm_type": "node", "osm_id": 3781060726, "_matched": false}}, {"type": "Feature", "geometry": {"type": "Point", "coordinates": [-0.1025343, 51.5907802]}, "properties": {"amenity": "taxi", "osm_type": "node", "osm_id": 3865853879, "_matched": true}}, {"type": "Feature", "geometry": {"type": "Point", "coordinates": [-0.0573138, 51.5048399]}, "properties": {"addr:city": "London", "addr:housenumber": "99", "addr:postcode": "E1W 2RW", "addr:street": "Wapping Lane", "amenity": "taxi", "check_date": "2025-06-09", "name": "Elite Cars", "osm_type": "node", "osm_id": 4085693311, "_matched": false}}, {"type": "Feature", "geometry": {"type": "Point", "coordinates": [-0.1245083, 51.530794]}, "properties": {"amenity": "taxi", "osm_type": "node", "osm_id": 4171866103, "_matched": true}}, {"type": "Feature", "geometry": {"type": "Point", "coordinates": [-0.1369429, 51.5090671]}, "properties": {"amenity": "taxi", "osm_type": "node", "osm_id": 4190435882, "_matched": true}}, {"type": "Feature", "geometry": {"type": "Point", "coordinates": [-0.1291963, 51.5174752]}, "properties": {"amenity": "taxi", "osm_type": "node", "osm_id": 4240455525, "_matched": true}}, {"type": "Feature", "geometry": {"type": "Point", "coordinates": [-0.3033691, 51.3922315]}, "properties": {"addr:city": "Surbiton", "addr:country": "GB", "addr:postcode": "KT6 6BZ", "addr:street": "Glenbuck Road", "amenity": "taxi", "contact:phone": "+44 20 8390 3030", "contact:website": "http://www.stationcarssurbiton.com/", "level": "0", "name": "Station Cars Surbiton Ltd", "osm_type": "node", "osm_id": 4323417146, "_matched": false}}, {"type": "Feature", "geometry": {"type": "Point", "coordinates": [0.0379909, 51.5308307]}, "properties": {"addr:city": "London", "addr:postcode": "E6 1PP", "addr:street": "Castle Street", "amenity": "taxi", "level": "0", "name": "Alpine Cars", "source:addr:postcode": "code-point_open", "osm_type": "node", "osm_id": 4340248766, "_matched": false}}, {"type": "Feature", "geometry": {"type": "Point", "coordinates": [-0.1479382, 51.4522923]}, "properties": {"amenity": "taxi", "name": "Atlas Cars", "osm_type": "node", "osm_id": 4374419935, "_matched": true}}, {"type": "Feature", "geometry": {"type": "Point", "coordinates": [-0.1214505, 51.5125303]}, "properties": {"amenity": "taxi", "osm_type": "node", "osm_id": 4427248749, "_matched": true}}, {"type": "Feature", "geometry": {"type": "Point", "coordinates": [-0.0796794, 51.5084934]}, "properties": {"amenity": "taxi", "capacity": "5", "osm_type": "node", "osm_id": 4452603010, "_matched": true}}, {"type": "Feature", "geometry": {"type": "Point", "coordinates": [-0.1936806, 51.4023283]}, "properties": {"amenity": "taxi", "name": "Yellow Mini Cab", "osm_type": "node", "osm_id": 4617068617, "_matched": true}}, {"type": "Feature", "geometry": {"type": "Point", "coordinates": [-0.1261488, 51.4598376]}, "properties": {"amenity": "taxi", "name": "P&L Minicabs", "osm_type": "node", "osm_id": 4640059359, "_matched": false}}, {"type": "Feature", "geometry": {"type": "Point", "coordinates": [-0.1062648, 51.5117659]}, "properties": {"amenity": "taxi", "osm_type": "node", "osm_id": 4661317352, "_matched": true}}, {"type": "Feature", "geometry": {"type": "Point", "coordinates": [-0.0199289, 51.5832067]}, "properties": {"amenity": "taxi", "osm_type": "node", "osm_id": 4703338698, "_matched": false}}, {"type": "Feature", "geometry": {"type": "Point", "coordinates": [-0.0939282, 51.4760308]}, "properties": {"amenity": "taxi", "name": "Camberwell Cars", "osm_type": "node", "osm_id": 4707025873, "_matched": false}}, {"type": "Feature", "geometry": {"type": "Point", "coordinates": [-0.1667435, 51.4639807]}, "properties": {"amenity": "taxi", "name": "Mini Cab @ Clapham Junction", "osm_type": "node", "osm_id": 4724927521, "_matched": false}}, {"type": "Feature", "geometry": {"type": "Point", "coordinates": [-0.0949354, 51.5708956]}, "properties": {"amenity": "taxi", "capacity": "2", "osm_type": "node", "osm_id": 4973866932, "_matched": true}}, {"type": "Feature", "geometry": {"type": "Point", "coordinates": [-0.0938331, 51.4795033]}, "properties": {"amenity": "taxi", "osm_type": "node", "osm_id": 5098633993, "_matched": false}}, {"type": "Feature", "geometry": {"type": "Point", "coordinates": [-0.1979279, 51.5967613]}, "properties": {"amenity": "taxi", "osm_type": "node", "osm_id": 5141528232, "_matched": false}}, {"type": "Feature", "geometry": {"type": "Point", "coordinates": [-0.1750979, 51.4941171]}, "properties": {"amenity": "taxi", "check_date": "2024-03-31", "osm_type": "node", "osm_id": 5146350772, "_matched": true}}, {"type": "Feature", "geometry": {"type": "Point", "coordinates": [-0.3718394, 51.5621889]}, "properties": {"amenity": "taxi", "name": "Minicabs.co.uk", "osm_type": "node", "osm_id": 5198143034, "_matched": false}}, {"type": "Feature", "geometry": {"type": "Point", "coordinates": [-0.1693871, 51.4633251]}, "properties": {"amenity": "taxi", "osm_type": "node", "osm_id": 5249036191, "_matched": true}}, {"type": "Feature", "geometry": {"type": "Point", "coordinates": [-0.0794683, 51.6522578]}, "properties": {"amenity": "taxi", "osm_type": "node", "osm_id": 5309606634, "_matched": true}}, {"type": "Feature", "geometry": {"type": "Point", "coordinates": [0.1836325, 51.5752363]}, "properties": {"amenity": "taxi", "check_date": "2025-05-25", "osm_type": "node", "osm_id": 5370783396, "_matched": true}}, {"type": "Feature", "geometry": {"type": "Point", "coordinates": [0.1782553, 51.5806617]}, "properties": {"addr:city": "Romford", "addr:housenumber": "90", "addr:postcode": "RM1 1DA", "addr:street": "North Street", "amenity": "taxi", "name": "Star Mini Cabs", "osm_type": "node", "osm_id": 5382875188, "_matched": false}}, {"type": "Feature", "geometry": {"type": "Point", "coordinates": [-0.1034863, 51.5191842]}, "properties": {"amenity": "taxi", "osm_type": "node", "osm_id": 5471346813, "_matched": false}}, {"type": "Feature", "geometry": {"type": "Point", "coordinates": [-0.083346, 51.5044291]}, "properties": {"amenity": "taxi", "osm_type": "node", "osm_id": 5497960330, "_matched": true}}, {"type": "Feature", "geometry": {"type": "Point", "coordinates": [-0.0940165, 51.5169404]}, "properties": {"amenity": "taxi", "osm_type": "node", "osm_id": 5506834693, "_matched": true}}, {"type": "Feature", "geometry": {"type": "Point", "coordinates": [0.0051769, 51.5531278]}, "properties": {"addr:city": "London", "addr:country": "GB", "addr:housenumber": "261", "addr:postcode": "E11 4HH", "addr:street": "High Road Leytonstone", "addr:suburb": "Leytonstone", "alt_name": "Airport Special Cars;MBA Cars;T Cars;Thatched Cars", "amenity": "taxi", "contact:phone": "+44 20 8555 6000", "contact:website": "http://www.thatchcars.co.uk/", "level": "0", "name": "Thatch Cars", "operator": "Thatch Cars Ltd", "ref:tfl": "009913", "osm_type": "node", "osm_id": 5820607544, "_matched": false}}, {"type": "Feature", "geometry": {"type": "Point", "coordinates": [-0.0126988, 51.4653775]}, "properties": {"amenity": "taxi", "capacity": "12", "name": "Lewisham Station taxi rank", "osm_type": "node", "osm_id": 5823292395, "_matched": true}}, {"type": "Feature", "geometry": {"type": "Point", "coordinates": [-0.1873463, 51.4419537]}, "properties": {"addr:city": "London", "addr:housenumber": "519b", "addr:postcode": "SW18 4SW", "addr:street": "Garratt Lane", "amenity": "taxi", "name": "South West Cars", "osm_type": "node", "osm_id": 5841778797, "_matched": false}}, {"type": "Feature", "geometry": {"type": "Point", "coordinates": [0.001542, 51.5408786]}, "properties": {"amenity": "taxi", "osm_type": "node", "osm_id": 5926853749, "_matched": true}}, {"type": "Feature", "geometry": {"type": "Point", "coordinates": [-0.3394063, 51.4391856]}, "properties": {"amenity": "taxi", "name": "BATS", "osm_type": "node", "osm_id": 6315703724, "_matched": false}}, {"type": "Feature", "geometry": {"type": "Point", "coordinates": [-0.4116099, 51.4463167]}, "properties": {"amenity": "taxi", "osm_type": "node", "osm_id": 6342572771, "_matched": false}}, {"type": "Feature", "geometry": {"type": "Point", "coordinates": [-0.1031591, 51.5166563]}, "properties": {"amenity": "taxi", "capacity": "2", "osm_type": "node", "osm_id": 6407949543, "_matched": false}}, {"type": "Feature", "geometry": {"type": "Point", "coordinates": [-0.136843, 51.5233399]}, "properties": {"amenity": "taxi", "check_date": "2025-02-25", "osm_type": "node", "osm_id": 6444359903, "_matched": false}}, {"type": "Feature", "geometry": {"type": "Point", "coordinates": [-0.1345846, 51.5209688]}, "properties": {"amenity": "taxi", "check_date": "2025-02-06", "osm_type": "node", "osm_id": 6444359904, "_matched": true}}, {"type": "Feature", "geometry": {"type": "Point", "coordinates": [-0.3018894, 51.412514]}, "properties": {"amenity": "taxi", "osm_type": "node", "osm_id": 6478693998, "_matched": true}}, {"type": "Feature", "geometry": {"type": "Point", "coordinates": [-0.1311442, 51.5100043]}, "properties": {"amenity": "taxi", "osm_type": "node", "osm_id": 6524302795, "_matched": true}}, {"type": "Feature", "geometry": {"type": "Point", "coordinates": [-0.1270311, 51.5222399]}, "properties": {"amenity": "taxi", "osm_type": "node", "osm_id": 6525047404, "_matched": true}}, {"type": "Feature", "geometry": {"type": "Point", "coordinates": [-0.124033, 51.522386]}, "properties": {"amenity": "taxi", "check_date": "2025-07-03", "osm_type": "node", "osm_id": 6525064211, "_matched": true}}, {"type": "Feature", "geometry": {"type": "Point", "coordinates": [-0.0899594, 51.5209869]}, "properties": {"amenity": "taxi", "capacity": "3", "name": "Bunhill Row", "osm_type": "node", "osm_id": 6833596497, "_matched": true}}, {"type": "Feature", "geometry": {"type": "Point", "coordinates": [-0.1426996, 51.5115156]}, "properties": {"amenity": "taxi", "colour": "#8480D7", "name": "Westbury Hotel", "osm_type": "node", "osm_id": 6849009937, "_matched": false}}, {"type": "Feature", "geometry": {"type": "Point", "coordinates": [0.0713532, 51.4377421]}, "properties": {"amenity": "taxi", "name": "All Day Cars", "osm_type": "node", "osm_id": 6919013408, "_matched": false}}, {"type": "Feature", "geometry": {"type": "Point", "coordinates": [-0.0179291, 51.5026183]}, "properties": {"amenity": "taxi", "osm_type": "node", "osm_id": 6946810245, "_matched": true}}, {"type": "Feature", "geometry": {"type": "Point", "coordinates": [-0.0196398, 51.5029594]}, "properties": {"amenity": "taxi", "osm_type": "node", "osm_id": 6946810246, "_matched": false}}, {"type": "Feature", "geometry": {"type": "Point", "coordinates": [-0.0191425, 51.5027373]}, "properties": {"amenity": "taxi", "osm_type": "node", "osm_id": 6946810247, "_matched": true}}, {"type": "Feature", "geometry": {"type": "Point", "coordinates": [-0.017457, 51.5030904]}, "properties": {"amenity": "taxi", "osm_type": "node", "osm_id": 6946831796, "_matched": true}}, {"type": "Feature", "geometry": {"type": "Point", "coordinates": [-0.142428, 51.5387864]}, "properties": {"amenity": "taxi", "osm_type": "node", "osm_id": 6950042432, "_matched": true}}, {"type": "Feature", "geometry": {"type": "Point", "coordinates": [-0.1483349, 51.4814022]}, "properties": {"amenity": "taxi", "osm_type": "node", "osm_id": 7005045547, "_matched": false}}, {"type": "Feature", "geometry": {"type": "Point", "coordinates": [-0.3015426, 51.4107441]}, "properties": {"amenity": "taxi", "colour": "#8480D7", "name": "Clarence Street", "osm_type": "node", "osm_id": 7072269925, "_matched": true}}, {"type": "Feature", "geometry": {"type": "Point", "coordinates": [-0.116597, 51.609768]}, "properties": {"amenity": "taxi", "name": "Swift Cars 24/7", "osm_type": "node", "osm_id": 7795758514, "_matched": false}}, {"type": "Feature", "geometry": {"type": "Point", "coordinates": [-0.0876454, 51.5195285]}, "properties": {"amenity": "taxi", "colour": "#8480D7", "name": "Finsbury Pavement", "wheelchair": "yes", "osm_type": "node", "osm_id": 7840807249, "_matched": true}}, {"type": "Feature", "geometry": {"type": "Point", "coordinates": [-0.1012962, 51.5074245]}, "properties": {"amenity": "taxi", "capacity": "6", "osm_type": "node", "osm_id": 7846661417, "_matched": true}}, {"type": "Feature", "geometry": {"type": "Point", "coordinates": [-0.1335265, 51.4997252]}, "properties": {"amenity": "taxi", "capacity": "3", "osm_type": "node", "osm_id": 7890923730, "_matched": true}}, {"type": "Feature", "geometry": {"type": "Point", "coordinates": [-0.1682648, 51.5528679]}, "properties": {"amenity": "taxi", "shelter": "yes", "osm_type": "node", "osm_id": 8108962556, "_matched": true}}, {"type": "Feature", "geometry": {"type": "Point", "coordinates": [-0.3376941, 51.5082926]}, "properties": {"amenity": "taxi", "name": "Boston Minicab Co", "osm_type": "node", "osm_id": 8416606596, "_matched": false}}, {"type": "Feature", "geometry": {"type": "Point", "coordinates": [-0.1926303, 51.4543438]}, "properties": {"amenity": "taxi", "osm_type": "node", "osm_id": 8807894727, "_matched": true}}, {"type": "Feature", "geometry": {"type": "Point", "coordinates": [-0.3326338, 51.4243706]}, "properties": {"amenity": "taxi", "name": "Bats", "osm_type": "node", "osm_id": 8827818641, "_matched": true}}, {"type": "Feature", "geometry": {"type": "Point", "coordinates": [-0.1252708, 51.5317637]}, "properties": {"amenity": "taxi", "capacity": "4", "osm_type": "node", "osm_id": 8988661721, "_matched": false}}, {"type": "Feature", "geometry": {"type": "Point", "coordinates": [-0.1253983, 51.5318736]}, "properties": {"amenity": "taxi", "osm_type": "node", "osm_id": 8988661751, "_matched": false}}, {"type": "Feature", "geometry": {"type": "Point", "coordinates": [-0.3021564, 51.4634028]}, "properties": {"amenity": "taxi", "osm_type": "node", "osm_id": 8989921033, "_matched": false}}, {"type": "Feature", "geometry": {"type": "Point", "coordinates": [-0.1001013, 51.5136728]}, "properties": {"amenity": "taxi", "osm_type": "node", "osm_id": 9024139151, "_matched": true}}, {"type": "Feature", "geometry": {"type": "Point", "coordinates": [-0.4805993, 51.5455375]}, "properties": {"amenity": "taxi", "name": "AllTimeCars", "osm_type": "node", "osm_id": 9080835733, "_matched": false}}, {"type": "Feature", "geometry": {"type": "Point", "coordinates": [-0.1055139, 51.5643929]}, "properties": {"amenity": "taxi", "osm_type": "node", "osm_id": 9382915364, "_matched": false}}, {"type": "Feature", "geometry": {"type": "Point", "coordinates": [-0.0943451, 51.6639187]}, "properties": {"amenity": "taxi", "osm_type": "node", "osm_id": 9585811494, "_matched": false}}, {"type": "Feature", "geometry": {"type": "Point", "coordinates": [-0.1056903, 51.5647537]}, "properties": {"amenity": "taxi", "osm_type": "node", "osm_id": 9619833831, "_matched": true}}, {"type": "Feature", "geometry": {"type": "Point", "coordinates": [-0.1432288, 51.4810308]}, "properties": {"amenity": "taxi", "osm_type": "node", "osm_id": 9632536491, "_matched": false}}, {"type": "Feature", "geometry": {"type": "Point", "coordinates": [-0.1457703, 51.4825444]}, "properties": {"amenity": "taxi", "osm_type": "node", "osm_id": 9632536492, "_matched": false}}, {"type": "Feature", "geometry": {"type": "Point", "coordinates": [-0.1319835, 51.4746465]}, "properties": {"amenity": "taxi", "name": "Dial A Craft LTD", "shop": "taxi", "taxi": "office", "osm_type": "node", "osm_id": 9648668363, "_matched": false}}, {"type": "Feature", "geometry": {"type": "Point", "coordinates": [-0.0921948, 51.3751052]}, "properties": {"amenity": "taxi", "osm_type": "node", "osm_id": 9649474379, "_matched": true}}, {"type": "Feature", "geometry": {"type": "Point", "coordinates": [-0.2200078, 51.4254986]}, "properties": {"amenity": "taxi", "osm_type": "node", "osm_id": 9673307517, "_matched": true}}, {"type": "Feature", "geometry": {"type": "Point", "coordinates": [-0.0748994, 51.5105575]}, "properties": {"amenity": "taxi", "osm_type": "node", "osm_id": 9683400955, "_matched": true}}, {"type": "Feature", "geometry": {"type": "Point", "coordinates": [0.081603, 51.53976]}, "properties": {"amenity": "taxi", "osm_type": "node", "osm_id": 9757276930, "_matched": false}}, {"type": "Feature", "geometry": {"type": "Point", "coordinates": [0.0768261, 51.5364113]}, "properties": {"addr:street": "North Street", "amenity": "taxi", "name": "Sams Cars", "osm_type": "node", "osm_id": 9872620844, "_matched": false}}, {"type": "Feature", "geometry": {"type": "Point", "coordinates": [0.1155943, 51.519334]}, "properties": {"amenity": "taxi", "osm_type": "node", "osm_id": 9897278901, "_matched": false}}, {"type": "Feature", "geometry": {"type": "Point", "coordinates": [-0.2194146, 51.5044653]}, "properties": {"amenity": "taxi", "osm_type": "node", "osm_id": 10004777759, "_matched": true}}, {"type": "Feature", "geometry": {"type": "Point", "coordinates": [-0.1142183, 51.511137]}, "properties": {"amenity": "taxi", "osm_type": "node", "osm_id": 10996184295, "_matched": true}}, {"type": "Feature", "geometry": {"type": "Point", "coordinates": [-0.0051083, 51.4251754]}, "properties": {"amenity": "taxi", "name": "Clover Cars", "osm_type": "node", "osm_id": 11064397473, "_matched": false}}, {"type": "Feature", "geometry": {"type": "Point", "coordinates": [-0.0180769, 51.5028253]}, "properties": {"amenity": "taxi", "osm_type": "node", "osm_id": 11109939631, "_matched": false}}, {"type": "Feature", "geometry": {"type": "Point", "coordinates": [-0.0210454, 51.3558476]}, "properties": {"amenity": "taxi", "name": "Wayside Mini-Cabs", "osm_type": "node", "osm_id": 11266940565, "_matched": false}}, {"type": "Feature", "geometry": {"type": "Point", "coordinates": [-0.2804181, 51.5628046]}, "properties": {"amenity": "taxi", "osm_type": "node", "osm_id": 11398473418, "_matched": false}}, {"type": "Feature", "geometry": {"type": "Point", "coordinates": [-0.2802289, 51.562833]}, "properties": {"amenity": "taxi", "osm_type": "node", "osm_id": 11398473419, "_matched": false}}, {"type": "Feature", "geometry": {"type": "Point", "coordinates": [-0.1283408, 51.5244717]}, "properties": {"amenity": "taxi", "osm_type": "node", "osm_id": 11726411272, "_matched": true}}, {"type": "Feature", "geometry": {"type": "Point", "coordinates": [-0.1331283, 51.5271034]}, "properties": {"amenity": "taxi", "description": "2 drops and pick up spaces for people requiring mobility assistance", "name": "Euston Square Gardens West", "wheelchair": "yes", "osm_type": "node", "osm_id": 11834964554, "_matched": false}}, {"type": "Feature", "geometry": {"type": "Point", "coordinates": [0.0087443, 51.5144481]}, "properties": {"amenity": "taxi", "osm_type": "node", "osm_id": 11953086840, "_matched": true}}, {"type": "Feature", "geometry": {"type": "Point", "coordinates": [0.0509581, 51.4561153]}, "properties": {"addr:city": "London", "addr:housenumber": "146", "addr:postcode": "SE9 6SN", "addr:street": "Well Hall Road", "amenity": "taxi", "name": "Mayday Car Services", "osm_type": "node", "osm_id": 12217072408, "_matched": false}}, {"type": "Feature", "geometry": {"type": "Point", "coordinates": [-0.1261733, 51.6322047]}, "properties": {"addr:city": "London", "addr:housenumber": "24", "addr:postcode": "N14 6PH", "addr:street": "The Broadway", "amenity": "taxi", "check_date": "2024-10-26", "name": "Comfort Transport Mini Cabs", "osm_type": "node", "osm_id": 12276934800, "_matched": false}}, {"type": "Feature", "geometry": {"type": "Point", "coordinates": [-0.125825, 51.6273967]}, "properties": {"addr:city": "London", "addr:housenumber": "56", "addr:postcode": "N14 6EB", "addr:street": "High Street", "amenity": "taxi", "contact:phone": "+44 20 8245 8866", "name": "Crown Cars", "osm_type": "node", "osm_id": 12327312222, "_matched": false}}, {"type": "Feature", "geometry": {"type": "Point", "coordinates": [-0.174943, 51.5421465]}, "properties": {"addr:city": "London", "addr:housename": "Regency Parade", "addr:street": "Finchley Road", "addr:unit": "12", "amenity": "taxi", "name": "Eagles Chauffeurs", "osm_type": "node", "osm_id": 12390151555, "_matched": false}}, {"type": "Feature", "geometry": {"type": "Point", "coordinates": [-0.2357487, 51.4928262]}, "properties": {"amenity": "taxi", "name": "Abbey Car", "osm_type": "node", "osm_id": 12960238469, "_matched": false}}, {"type": "Feature", "geometry": {"type": "Point", "coordinates": [-0.129352, 51.4220193]}, "properties": {"addr:housenumber": "424", "addr:street": "Streatham High Road", "amenity": "taxi", "contact:phone": "+44 20 8677 3635", "cuisine": "fish_and_chips", "name": "Airport Services", "osm_type": "node", "osm_id": 12979925702, "_matched": false}}, {"type": "Feature", "geometry": {"type": "Point", "coordinates": [-0.1304658, 51.5177218]}, "properties": {"amenity": "taxi", "osm_type": "node", "osm_id": 13017687005, "_matched": true}}, {"type": "Feature", "geometry": {"type": "Point", "coordinates": [-0.1940144, 51.5230352]}, "properties": {"addr:city": "London", "addr:housenumber": "5", "addr:street": "Sutherland Avenue", "amenity": "taxi", "fixme": "It's a cab office", "name": "Pronto Cars", "osm_type": "node", "osm_id": 13065209396, "_matched": false}}, {"type": "Feature", "geometry": {"type": "Point", "coordinates": [-0.3192888, 51.5144953]}, "properties": {"amenity": "taxi", "name": "Manor Cars", "osm_type": "node", "osm_id": 13121393132, "_matched": false}}, {"type": "Feature", "geometry": {"type": "Point", "coordinates": [-0.1021642, 51.5992402]}, "properties": {"amenity": "taxi", "building": "office", "fixme": "This is a minicab office, not a taxi stand. But we don't seem to have a way to tag that", "name": "Metro Express", "osm_type": "node", "osm_id": 13130011491, "_matched": false}}, {"type": "Feature", "geometry": {"type": "Point", "coordinates": [0.0110399, 51.5431707]}, "properties": {"amenity": "taxi", "capacity": "2", "osm_type": "node", "osm_id": 13360517921, "_matched": true}}, {"type": "Feature", "geometry": {"type": "Point", "coordinates": [-0.2757568, 51.6137202]}, "properties": {"amenity": "taxi", "osm_type": "node", "osm_id": 13418047939, "_matched": true}}, {"type": "Feature", "geometry": {"type": "Point", "coordinates": [-0.151516, 51.5434452]}, "properties": {"amenity": "taxi", "osm_type": "node", "osm_id": 13426677444, "_matched": false}}, {"type": "Feature", "geometry": {"type": "Point", "coordinates": [0.0234652, 51.5467559]}, "properties": {"amenity": "taxi", "check_date": "2026-06-26", "name": "A1 Mini Cabs", "osm_type": "node", "osm_id": 13969215958, "_matched": false}}]}